{
  "type": "FeatureCollection",
  "features": [
    {
      "type": "Feature",
      "properties": {
        "norad_id": 43706,
        "name": "BEIDOU-3 M17 (C36)",
        "group": "beidou",
        "lat": -47.676684588404285,
        "lon": 60.827848781126974,
        "alt_km": 21525.693942005797,
        "timestamp": "2025-12-22T11:33:20.704959+00:00",
        "meta_object_name": "BEIDOU-3 M17 (C36)",
        "meta_object_id": "2018-093A",
        "meta_epoch": "2025-12-20T12:04:20.840736",
        "meta_mean_motion": 1.86228485,
        "meta_eccentricity": 0.00060883,
        "meta_inclination": 54.1751,
        "meta_ra_of_asc_node": 188.3582,
        "meta_arg_of_pericenter": 307.8758,
        "meta_mean_anomaly": 51.559,
        "meta_ephemeris_type": 0,
        "meta_classification_type": "U",
        "meta_norad_cat_id": 43706,
        "meta_element_set_no": 999,
        "meta_rev_at_epoch": 4820,
        "meta_bstar": 0,
        "meta_mean_motion_dot": 9.7e-07,
        "meta_mean_motion_ddot": 0,
        "tle_line1": "1 43706U 18093A   25354.50301899  .00000097  00000+0  00000+0 0  9999",
        "tle_line2": "2 43706  54.1751 188.3582 0006088 307.8758  51.5590  1.86228485 48203"
      },
      "geometry": {
        "type": "Point",
        "coordinates": [
          60.827848781126974,
          -47.676684588404285
        ]
      }
    },
    {
      "type": "Feature",
      "properties": {
        "norad_id": 43707,
        "name": "BEIDOU-3 M18 (C37)",
        "group": "beidou",
        "lat": -17.154298835587948,
        "lon": 175.39489287098607,
        "alt_km": 21514.13457378721,
        "timestamp": "2025-12-22T11:33:20.704970+00:00",
        "meta_object_name": "BEIDOU-3 M18 (C37)",
        "meta_object_id": "2018-093B",
        "meta_epoch": "2025-12-20T21:39:28.587744",
        "meta_mean_motion": 1.86226757,
        "meta_eccentricity": 0.00062168,
        "meta_inclination": 54.1741,
        "meta_ra_of_asc_node": 188.3365,
        "meta_arg_of_pericenter": 353.7926,
        "meta_mean_anomaly": 6.2524,
        "meta_ephemeris_type": 0,
        "meta_classification_type": "U",
        "meta_norad_cat_id": 43707,
        "meta_element_set_no": 999,
        "meta_rev_at_epoch": 4821,
        "meta_bstar": 0,
        "meta_mean_motion_dot": 9.5e-07,
        "meta_mean_motion_ddot": 0,
        "tle_line1": "1 43707U 18093B   25354.90241421  .00000095  00000+0  00000+0 0  9996",
        "tle_line2": "2 43707  54.1741 188.3365 0006216 353.7926   6.2524  1.86226757 48217"
      },
      "geometry": {
        "type": "Point",
        "coordinates": [
          175.39489287098607,
          -17.154298835587948
        ]
      }
    },
    {
      "type": "Feature",
      "properties": {
        "norad_id": 44231,
        "name": "BEIDOU-2 G8 (C01)",
        "group": "beidou",
        "lat": -0.7091691906331015,
        "lon": 49.19710707993354,
        "alt_km": 35776.78965314682,
        "timestamp": "2025-12-22T11:33:20.704981+00:00",
        "meta_object_name": "BEIDOU-2 G8 (C01)",
        "meta_object_id": "2019-027A",
        "meta_epoch": "2025-12-19T12:14:23.449632",
        "meta_mean_motion": 1.00276563,
        "meta_eccentricity": 0.0008196,
        "meta_inclination": 1.6785,
        "meta_ra_of_asc_node": 74.7229,
        "meta_arg_of_pericenter": 258.5641,
        "meta_mean_anomaly": 83.1013,
        "meta_ephemeris_type": 0,
        "meta_classification_type": "U",
        "meta_norad_cat_id": 44231,
        "meta_element_set_no": 999,
        "meta_rev_at_epoch": 2427,
        "meta_bstar": 0,
        "meta_mean_motion_dot": -2.24e-06,
        "meta_mean_motion_ddot": 0,
        "tle_line1": "1 44231U 19027A   25353.50999363 -.00000224  00000+0  00000+0 0  9992",
        "tle_line2": "2 44231   1.6785  74.7229 0008196 258.5641  83.1013  1.00276563 24270"
      },
      "geometry": {
        "type": "Point",
        "coordinates": [
          49.19710707993354,
          -0.7091691906331015
        ]
      }
    },
    {
      "type": "Feature",
      "properties": {
        "norad_id": 44337,
        "name": "BEIDOU-3 IGSO-2 (C39)",
        "group": "beidou",
        "lat": -34.64137906022864,
        "lon": 9.120945247903844,
        "alt_km": 35644.31242892524,
        "timestamp": "2025-12-22T11:33:20.704993+00:00",
        "meta_object_name": "BEIDOU-3 IGSO-2 (C39)",
        "meta_object_id": "2019-035A",
        "meta_epoch": "2025-12-21T20:57:21.557088",
        "meta_mean_motion": 1.00268613,
        "meta_eccentricity": 0.003767,
        "meta_inclination": 55.2286,
        "meta_ra_of_asc_node": 160.4211,
        "meta_arg_of_pericenter": 202.2744,
        "meta_mean_anomaly": 161.7127,
        "meta_ephemeris_type": 0,
        "meta_classification_type": "U",
        "meta_norad_cat_id": 44337,
        "meta_element_set_no": 999,
        "meta_rev_at_epoch": 2389,
        "meta_bstar": 0,
        "meta_mean_motion_dot": -7.4e-07,
        "meta_mean_motion_ddot": 0,
        "tle_line1": "1 44337U 19035A   25355.87316617 -.00000074  00000+0  00000+0 0  9998",
        "tle_line2": "2 44337  55.2286 160.4211 0037670 202.2744 161.7127  1.00268613 23894"
      },
      "geometry": {
        "type": "Point",
        "coordinates": [
          9.120945247903844,
          -34.64137906022864
        ]
      }
    },
    {
      "type": "Feature",
      "properties": {
        "norad_id": 44542,
        "name": "BEIDOU-3 M24 (C46)",
        "group": "beidou",
        "lat": -49.31619903323386,
        "lon": 132.19376857114548,
        "alt_km": 21535.851666469665,
        "timestamp": "2025-12-22T11:33:20.705004+00:00",
        "meta_object_name": "BEIDOU-3 M24 (C46)",
        "meta_object_id": "2019-061A",
        "meta_epoch": "2025-12-20T23:21:37.865088",
        "meta_mean_motion": 1.86229471,
        "meta_eccentricity": 0.0009592,
        "meta_inclination": 54.4004,
        "meta_ra_of_asc_node": 188.7381,
        "meta_arg_of_pericenter": 25.7188,
        "meta_mean_anomaly": 334.3821,
        "meta_ephemeris_type": 0,
        "meta_classification_type": "U",
        "meta_norad_cat_id": 44542,
        "meta_element_set_no": 999,
        "meta_rev_at_epoch": 4247,
        "meta_bstar": 0,
        "meta_mean_motion_dot": 9.6e-07,
        "meta_mean_motion_ddot": 0,
        "tle_line1": "1 44542U 19061A   25354.97335492  .00000096  00000+0  00000+0 0  9990",
        "tle_line2": "2 44542  54.4004 188.7381 0009592  25.7188 334.3821  1.86229471 42471"
      },
      "geometry": {
        "type": "Point",
        "coordinates": [
          132.19376857114548,
          -49.31619903323386
        ]
      }
    },
    {
      "type": "Feature",
      "properties": {
        "norad_id": 44543,
        "name": "BEIDOU-3 M23 (C45)",
        "group": "beidou",
        "lat": -19.251994675007253,
        "lon": 23.159175729472057,
        "alt_km": 21547.96324012168,
        "timestamp": "2025-12-22T11:33:20.705015+00:00",
        "meta_object_name": "BEIDOU-3 M23 (C45)",
        "meta_object_id": "2019-061B",
        "meta_epoch": "2025-12-21T09:48:50.565312",
        "meta_mean_motion": 1.86227721,
        "meta_eccentricity": 0.00060743,
        "meta_inclination": 54.3995,
        "meta_ra_of_asc_node": 188.6918,
        "meta_arg_of_pericenter": 25.4235,
        "meta_mean_anomaly": 179.4087,
        "meta_ephemeris_type": 0,
        "meta_classification_type": "U",
        "meta_norad_cat_id": 44543,
        "meta_element_set_no": 999,
        "meta_rev_at_epoch": 4248,
        "meta_bstar": 0,
        "meta_mean_motion_dot": 9.5e-07,
        "meta_mean_motion_ddot": 0,
        "tle_line1": "1 44543U 19061B   25355.40891858  .00000095  00000+0  00000+0 0  9992",
        "tle_line2": "2 44543  54.3995 188.6918 0006074  25.4235 179.4087  1.86227721 42486"
      },
      "geometry": {
        "type": "Point",
        "coordinates": [
          23.159175729472057,
          -19.251994675007253
        ]
      }
    },
    {
      "type": "Feature",
      "properties": {
        "norad_id": 44793,
        "name": "BEIDOU-3 M22 (C44)",
        "group": "beidou",
        "lat": 30.260132640760112,
        "lon": -29.007056744919325,
        "alt_km": 21507.823445067097,
        "timestamp": "2025-12-22T11:33:20.705027+00:00",
        "meta_object_name": "BEIDOU-3 M22 (C44)",
        "meta_object_id": "2019-078A",
        "meta_epoch": "2025-12-21T21:17:38.113152",
        "meta_mean_motion": 1.86232212,
        "meta_eccentricity": 0.0006079,
        "meta_inclination": 54.0999,
        "meta_ra_of_asc_node": 306.0653,
        "meta_arg_of_pericenter": 23.9772,
        "meta_mean_anomaly": 336.0508,
        "meta_ephemeris_type": 0,
        "meta_classification_type": "U",
        "meta_norad_cat_id": 44793,
        "meta_element_set_no": 999,
        "meta_rev_at_epoch": 4134,
        "meta_bstar": 0,
        "meta_mean_motion_dot": -5.9e-07,
        "meta_mean_motion_ddot": 0,
        "tle_line1": "1 44793U 19078A   25355.88724668 -.00000059  00000+0  00000+0 0  9994",
        "tle_line2": "2 44793  54.0999 306.0653 0006079  23.9772 336.0508  1.86232212 41344"
      },
      "geometry": {
        "type": "Point",
        "coordinates": [
          -29.007056744919325,
          30.260132640760112
        ]
      }
    }
  ]
}